NORAD_CAT_ID,OBJECT_NAME,OBJECT_TYPE,EPOCH,MEAN_MOTION,ECCENTRICITY,INCLINATION,RA_OF_ASC_NODE,ARG_OF_PERICENTER,MEAN_ANOMALY,BSTAR,MEAN_MOTION_DOT,MEAN_MOTION_DDOT,TLE_LINE0,TLE_LINE1,TLE_LINE2,SEMIMAJOR_AXIS,PERIOD,APOGEE,PERIGEE,DECAYED
53704.0,STARLINK-4714,PAYLOAD,2024-06-04 23:38:23,15.08851361,0.0001876,53.2186,249.5901,83.246,276.8745,0.0001295,1.774e-05,0.0,0 STARLINK-4714,1 53704U 22107E   24156.98499821  .00001774  00000-0  12950-3 0  9998,2 53704  53.2186 249.5901 0001876  83.2460 276.8745 15.08851361 97071,6917.846,95.437,541.008,538.413,0.0
53704.0,STARLINK-4714,PAYLOAD,2024-06-05 12:21:30,15.08833961,0.000143,53.2163,247.2113,93.5009,266.6147,-5.449e-05,-1.155e-05,0.0,0 STARLINK-4714,1 53704U 22107E   24157.51493347 -.00001155  00000-0 -54490-4 0  9996,2 53704  53.2163 247.2113 0001430  93.5009 266.6147 15.08833961 97153,6917.899,95.438,540.753,538.775,0.0
53704.0,STARLINK-4714,PAYLOAD,2024-06-05 15:32:16,15.08834164,0.0001433,53.2162,246.6165,93.9036,266.212,-4.954e-05,-1.076e-05,0.0,0 STARLINK-4714,1 53704U 22107E   24157.64741381 -.00001076  00000-0 -49540-4 0  9996,2 53704  53.2162 246.6165 0001433  93.9036 266.2120 15.08834164 97769,6917.898,95.438,540.755,538.772,0.0
53704.0,STARLINK-4714,PAYLOAD,2024-06-06 12:12:16,15.08845956,0.0001294,53.2157,242.7521,90.4976,269.6164,0.00021792,3.183e-05,0.0,0 STARLINK-4714,1 53704U 22107E   24158.50852708  .00003183  00000-0  21792-3 0  9995,2 53704  53.2157 242.7521 0001294  90.4976 269.6164 15.08845956 97302,6917.862,95.437,540.622,538.832,0.0
53704.0,STARLINK-4714,PAYLOAD,2024-06-07 08:52:18,15.08834501,0.0001398,53.217,238.8863,90.0129,270.1024,0.0001842,2.644e-05,0.0,0 STARLINK-4714,1 53704U 22107E   24159.36965307  .00002644  00000-0  18420-3 0  9995,2 53704  53.2170 238.8863 0001398  90.0129 270.1024 15.08834501 97433,6917.897,95.438,540.729,538.795,0.0
53704.0,STARLINK-4714,PAYLOAD,2024-06-08 11:53:51,15.0883778,0.0001201,53.2168,233.8318,86.2897,273.8233,-1.7919e-05,-5.73e-06,0.0,0 STARLINK-4714,1 53704U 22107E   24160.49573556 -.00000573  00000-0 -17919-4 0  9996,2 53704  53.2168 233.8318 0001201  86.2897 273.8233 15.08837780 98190,6917.887,95.438,540.583,538.921,0.0
53704.0,STARLINK-4714,PAYLOAD,2024-06-08 21:26:09,15.08848031,0.0001304,53.2177,232.0471,88.1018,272.0123,6.0015e-05,6.68e-06,0.0,0 STARLINK-4714,1 53704U 22107E   24160.89316649  .00000668  00000-0  60015-4 0  9996,2 53704  53.2177 232.0471 0001304  88.1018 272.0123 15.08848031 98258,6917.856,95.437,540.623,538.819,0.0
53704.0,STARLINK-4714,PAYLOAD,2024-06-09 13:20:02,15.08831989,0.0001425,53.2179,229.0754,89.2755,270.84,8.5535e-05,1.073e-05,0.0,0 STARLINK-4714,1 53704U 22107E   24161.55558049  .00001073  00000-0  85535-4 0  9997,2 53704  53.2179 229.0754 0001425  89.2755 270.8400 15.08831989 97767,6917.905,95.438,540.756,538.784,0.0
53704.0,STARLINK-4714,PAYLOAD,2024-06-09 21:16:57,15.08842875,0.0001428,53.2181,227.5907,94.0843,266.0313,0.00015756,2.221e-05,0.0,0 STARLINK-4714,1 53704U 22107E   24161.88677271  .00002221  00000-0  15756-3 0  9995,2 53704  53.2181 227.5907 0001428  94.0843 266.0313 15.08842875 97810,6917.872,95.437,540.724,538.749,0.0
53704.0,STARLINK-4714,PAYLOAD,2024-06-10 11:35:26,15.08833847,0.0001603,53.2186,224.913,91.5422,268.5753,0.00011953,1.615e-05,0.0,0 STARLINK-4714,1 53704U 22107E   24162.48294120  .00001615  00000-0  11953-3 0  9991,2 53704  53.2186 224.9130 0001603  91.5422 268.5753 15.08833847 97908,6917.899,95.438,540.873,538.655,0.0
53704.0,STARLINK-4714,PAYLOAD,2024-06-10 21:07:44,15.08849301,0.0001542,53.2181,223.1275,84.3669,275.7499,0.00011682,1.572e-05,0.0,0 STARLINK-4714,1 53704U 22107E   24162.88037055  .00001572  00000-0  11682-3 0  9998,2 53704  53.2181 223.1275 0001542  84.3669 275.7499 15.08849301 97964,6917.852,95.437,540.784,538.65,0.0
53704.0,STARLINK-4714,PAYLOAD,2024-06-11 11:26:12,15.08838531,0.0001729,53.2186,220.4517,92.1575,267.9615,0.00011128,1.483e-05,0.0,0 STARLINK-4714,1 53704U 22107E   24163.47653808  .00001483  00000-0  11128-3 0  9990,2 53704  53.2186 220.4517 0001729  92.1575 267.9615 15.08838531 98640,6917.885,95.438,540.946,538.554,0.0
53704.0,STARLINK-4714,PAYLOAD,2024-06-11 20:58:31,15.0884654,0.0001869,53.2192,218.6677,78.5219,281.5983,0.00011908,1.608e-05,0.0,0 STARLINK-4714,1 53704U 22107E   24163.87397254  .00001608  00000-0  11908-3 0  9999,2 53704  53.2192 218.6677 0001869  78.5219 281.5983 15.08846540 98112,6917.86,95.437,541.018,538.432,0.0
53704.0,STARLINK-4714,PAYLOAD,2024-06-12 11:17:00,15.08838878,0.0001273,53.2165,215.9883,83.4638,276.6499,-2.419e-05,-6.73e-06,0.0,0 STARLINK-4714,1 53704U 22107E   24164.47013941 -.00000673  00000-0 -24190-4 0  9995,2 53704  53.2165 215.9883 0001273  83.4638 276.6499 15.08838878 98202,6917.884,95.438,540.629,538.868,0.0
53704.0,STARLINK-4714,PAYLOAD,2024-06-13 09:32:23,15.08843553,0.0001392,53.2163,211.8272,83.8009,276.3141,9.6964e-05,1.256e-05,0.0,0 STARLINK-4714,1 53704U 22107E   24165.39749253  .00001256  00000-0  96964-4 0  9993,2 53704  53.2163 211.8272 0001392  83.8009 276.3141 15.08843553 98347,6917.87,95.437,540.697,538.772,0.0
53704.0,STARLINK-4714,PAYLOAD,2024-06-14 12:33:57,15.08835108,0.0001586,53.218,206.7709,100.1376,259.9795,3.37e-05,2.48e-06,0.0,0 STARLINK-4714,1 53704U 22107E   24166.52357894  .00000248  00000-0  33700-4 0  9994,2 53704  53.2180 206.7709 0001586 100.1376 259.9795 15.08835108 99103,6917.895,95.438,540.858,538.663,0.0
53704.0,STARLINK-4714,PAYLOAD,2024-06-15 09:13:57,15.08844088,0.0001481,53.2175,202.9065,96.6876,263.4285,2.6131e-05,1.28e-06,0.0,0 STARLINK-4714,1 53704U 22107E   24167.38469333  .00000128  00000-0  26131-4 0  9998,2 53704  53.2175 202.9065 0001481  96.6876 263.4285 15.08844088 99233,6917.868,95.437,540.757,538.708,0.0
53704.0,STARLINK-4714,PAYLOAD,2024-06-16 09:04:44,15.08836154,0.0001327,53.2161,198.4458,94.2682,265.8462,7.8465e-05,9.61e-06,0.0,0 STARLINK-4714,1 53704U 22107E   24168.37829690  .00000961  00000-0  78465-4 0  9996,2 53704  53.2161 198.4458 0001327  94.2682 265.8462 15.08836154 99385,6917.892,95.438,540.675,538.839,0.0
53704.0,STARLINK-4714,PAYLOAD,2024-06-17 18:27:51,15.0883569,0.0001257,53.2155,192.2006,90.6018,269.5118,1.0943e-05,-1.14e-06,0.0,0 STARLINK-4714,1 53704U 22107E   24169.76934222 -.00000114  00000-0  10943-4 0  9996,2 53704  53.2155 192.2006 0001257  90.6018 269.5118 15.08835690 99590,6917.894,95.438,540.628,538.889,0.0
53704.0,STARLINK-4714,PAYLOAD,2024-06-18 10:21:41,15.08850086,0.0001236,53.2151,189.226,82.2376,277.8757,0.00015887,2.242e-05,0.0,0 STARLINK-4714,1 53704U 22107E   24170.43172835  .00002242  00000-0  15887-3 0  9990,2 53704  53.2151 189.2260 0001236  82.2376 277.8757 15.08850086 99109,6917.85,95.437,540.57,538.86,0.0
53704.0,STARLINK-4714,PAYLOAD,2024-06-18 18:18:36,15.08857641,0.0001248,53.2153,187.7388,77.5661,282.5471,0.00022227,3.253e-05,0.0,0 STARLINK-4714,1 53704U 22107E   24170.76291909  .00003253  00000-0  22227-3 0  9999,2 53704  53.2153 187.7388 0001248  77.5661 282.5471 15.08857641 99157,6917.826,95.436,540.555,538.828,0.0
53704.0,STARLINK-4714,PAYLOAD,2024-06-19 05:26:20,15.08830777,0.000134,53.2144,185.6562,83.0369,277.0776,-3.0948e-06,-3.37e-06,0.0,0 STARLINK-4714,1 53704U 22107E   24171.22662328 -.00000337  00000-0 -30948-5 0  9991,2 53704  53.2144 185.6562 0001340  83.0369 277.0776 15.08830777 99224,6917.909,95.438,540.701,538.847,0.0
53704.0,STARLINK-4714,PAYLOAD,2024-06-19 10:12:29,15.08830995,0.0001314,53.2154,184.7653,84.789,275.3252,1.4866e-05,-5.1e-07,0.0,0 STARLINK-4714,1 53704U 22107E   24171.42534432 -.00000051  00000-0  14866-4 0  9999,2 53704  53.2154 184.7653 0001314  84.7890 275.3252 15.08830995 99844,6917.908,95.438,540.682,538.864,0.0
53704.0,STARLINK-4714,PAYLOAD,2024-06-19 18:09:25,15.08833538,0.0001324,53.2159,183.2791,86.3151,273.7992,3.9289e-05,3.37e-06,0.0,0 STARLINK-4714,1 53704U 22107E   24171.75654358  .00000337  00000-0  39289-4 0  9997,2 53704  53.2159 183.2791 0001324  86.3151 273.7992 15.08833538 99899,6917.9,95.438,540.681,538.849,0.0
53704.0,STARLINK-4714,PAYLOAD,2024-06-20 05:17:07,15.08839626,0.0001475,53.2166,181.1976,85.1761,274.94,-6.4678e-06,-3.91e-06,0.0,0 STARLINK-4714,1 53704U 22107E   24172.22022245 -.00000391  00000-0 -64678-5 0  9997,2 53704  53.2166 181.1976 0001475  85.1761 274.9400 15.08839626 99374,6917.882,95.438,540.767,538.726,0.0
53704.0,STARLINK-4714,PAYLOAD,2024-06-20 10:03:16,15.08844769,0.0001309,53.216,180.3055,87.3874,272.7268,-7.2304e-05,-1.439e-05,0.0,0 STARLINK-4714,1 53704U 22107E   24172.41894031 -.00001439  00000-0 -72304-4 0  9996,2 53704  53.2160 180.3055 0001309  87.3874 272.7268 15.08844769 99992,6917.866,95.437,540.636,538.825,0.0
53704.0,STARLINK-4714,PAYLOAD,2024-06-21 06:43:17,15.08837809,0.000141,53.2163,176.4399,89.6975,270.4179,0.00018834,2.711e-05,0.0,0 STARLINK-4714,1 53704U 22107E   24173.28006050  .00002711  00000-0  18834-3 0  9997,2 53704  53.2163 176.4399 0001410  89.6975 270.4179 15.08837809 99535,6917.887,95.438,540.728,538.777,0.0
53704.0,STARLINK-4714,PAYLOAD,2024-06-22 09:44:50,15.08841085,0.0001406,53.2162,171.3853,87.8279,272.2874,0.00012558,1.711e-05,0.0,0 STARLINK-4714,1 53704U 22107E   24174.40614237  .00001711  00000-0  12558-3 0  9990,2 53704  53.2162 171.3853 0001406  87.8279 272.2874 15.08841085 99707,6917.877,95.437,540.715,538.769,0.0
53704.0,STARLINK-4714,PAYLOAD,2024-06-23 06:24:51,15.08838301,0.0001428,53.2166,167.519,98.3423,261.7731,3.0795e-05,2.02e-06,0.0,0 STARLINK-4714,1 53704U 22107E   24175.26726528  .00000202  00000-0  30795-4 0  9990,2 53704  53.2166 167.5190 0001428  98.3423 261.7731 15.08838301 99830,6917.886,95.438,540.738,538.763,0.0
53704.0,STARLINK-4714,PAYLOAD,2024-06-24 06:15:38,15.08840702,0.0001427,53.2167,163.0582,94.8033,265.3122,8.1836e-05,1.015e-05,0.0,0 STARLINK-4714,1 53704U 22107E   24176.26086310  .00001015  00000-0  81836-4 0  9994,2 53704  53.2167 163.0582 0001427  94.8033 265.3122 15.08840702100570,6917.878,95.438,540.73,538.756,0.0
